NORAD_CAT_ID,OBJECT_NAME,OBJECT_TYPE,EPOCH,MEAN_MOTION,ECCENTRICITY,INCLINATION,RA_OF_ASC_NODE,ARG_OF_PERICENTER,MEAN_ANOMALY,BSTAR,MEAN_MOTION_DOT,MEAN_MOTION_DDOT,TLE_LINE0,TLE_LINE1,TLE_LINE2,SEMIMAJOR_AXIS,PERIOD,APOGEE,PERIGEE,DECAYED
55779.0,STARLINK-5817,PAYLOAD,2024-07-02 18:44:00,14.98333755,0.000301,70.0004,314.6606,269.5133,90.5681,6.729e-05,7.1e-06,0.0,0 STARLINK-5817,1 55779U 23028AQ  24184.78055639  .00000710  00000-0  67290-4 0  9996,2 55779  70.0004 314.6606 0003010 269.5133  90.5681 14.98333755 74924,6950.181,96.107,574.138,569.954,0.0
55779.0,STARLINK-5817,PAYLOAD,2024-07-03 12:21:29,14.98327669,0.0002897,70.0011,312.8091,270.2684,89.8143,2.3345e-05,1.86e-06,0.0,0 STARLINK-5817,1 55779U 23028AQ  24185.51492169  .00000186  00000-0  23345-4 0  9991,2 55779  70.0011 312.8091 0002897 270.2684  89.8143 14.98327669 75036,6950.2,96.107,574.079,570.052,0.0
55779.0,STARLINK-5817,PAYLOAD,2024-07-03 18:46:01,14.98332312,0.0003009,70.0009,312.1359,271.0495,89.0319,4.4663e-05,4.4e-06,0.0,0 STARLINK-5817,1 55779U 23028AQ  24185.78195795  .00000440  00000-0  44663-4 0  9994,2 55779  70.0009 312.1359 0003009 271.0495  89.0319 14.98332312 75070,6950.186,96.107,574.142,569.959,0.0
55779.0,STARLINK-5817,PAYLOAD,2024-07-04 13:59:37,14.98329347,0.0002945,70.0009,310.1161,270.9198,89.1624,5.2407e-05,5.32e-06,0.0,0 STARLINK-5817,1 55779U 23028AQ  24186.58307865  .00000532  00000-0  52407-4 0  9993,2 55779  70.0009 310.1161 0002945 270.9198  89.1624 14.98329347 75192,6950.195,96.107,574.107,570.013,0.0
55779.0,STARLINK-5817,PAYLOAD,2024-07-04 17:11:54,14.98320898,0.0002872,70.0009,309.7796,267.0488,93.0343,0.00026233,3.038e-05,0.0,0 STARLINK-5817,1 55779U 23028AQ  24186.71659883  .00003038  00000-0  26233-3 0  9999,2 55779  70.0009 309.7796 0002872 267.0488  93.0343 14.98320898 75215,6950.221,96.108,574.082,570.09,0.0
55779.0,STARLINK-5817,PAYLOAD,2024-07-05 01:12:34,14.98333439,0.000289,70.0009,308.9379,270.8509,89.2319,3.2319e-05,2.93e-06,0.0,0 STARLINK-5817,1 55779U 23028AQ  24187.05039582  .00000293  00000-0  32319-4 0  9998,2 55779  70.0009 308.9379 0002890 270.8509  89.2319 14.98333439 75269,6950.182,96.107,574.056,570.039,0.0
55779.0,STARLINK-5817,PAYLOAD,2024-07-05 14:01:38,14.98332017,0.0002847,70.0009,307.5919,267.1064,92.9769,2.6748e-05,2.26e-06,0.0,0 STARLINK-5817,1 55779U 23028AQ  24187.58447650  .00000226  00000-0  26748-4 0  9990,2 55779  70.0009 307.5919 0002847 267.1064  92.9769 14.98332017 75341,6950.187,96.107,574.03,570.073,0.0
55779.0,STARLINK-5817,PAYLOAD,2024-07-05 17:13:54,14.98333303,0.0002836,70.0009,307.2552,267.4858,92.5977,4.0101e-05,3.86e-06,0.0,0 STARLINK-5817,1 55779U 23028AQ  24187.71799515  .00000386  00000-0  40101-4 0  9991,2 55779  70.0009 307.2552 0002836 267.4858  92.5977 14.98333303 75361,6950.183,96.107,574.019,570.077,0.0
55779.0,STARLINK-5817,PAYLOAD,2024-07-06 01:14:35,14.98333457,0.0002885,70.0009,306.4137,266.495,93.5879,-1.9166e-05,-3.22e-06,0.0,0 STARLINK-5817,1 55779U 23028AQ  24188.05179591 -.00000322  00000-0 -19166-4 0  9994,2 55779  70.0009 306.4137 0002885 266.4950  93.5879 14.98333457 75415,6950.182,96.107,574.052,570.042,0.0
55779.0,STARLINK-5817,PAYLOAD,2024-07-06 12:27:32,14.98327027,0.0002789,70.0009,305.2357,267.6214,92.4626,-4.4881e-05,-6.28e-06,0.0,0 STARLINK-5817,1 55779U 23028AQ  24188.51912095 -.00000628  00000-0 -44881-4 0  9990,2 55779  70.0009 305.2357 0002789 267.6214  92.4626 14.98327027 75486,6950.202,96.107,574.005,570.129,0.0
55779.0,STARLINK-5817,PAYLOAD,2024-07-06 14:03:39,14.98328795,0.0002848,70.0009,305.0674,266.0628,94.0206,3.9792e-06,-4.5e-07,0.0,0 STARLINK-5817,1 55779U 23028AQ  24188.58587814 -.00000045  00000-0  39792-5 0  9992,2 55779  70.0009 305.0674 0002848 266.0628  94.0206 14.98328795 75490,6950.197,96.107,574.041,570.082,0.0
55779.0,STARLINK-5817,PAYLOAD,2024-07-06 17:15:56,14.98326938,0.0002893,70.0008,304.7303,266.1084,93.9745,-3.0099e-05,-4.52e-06,0.0,0 STARLINK-5817,1 55779U 23028AQ  24188.71940047 -.00000452  00000-0 -30099-4 0  9991,2 55779  70.0008 304.7303 0002893 266.1084  93.9745 14.98326938 75517,6950.202,96.107,574.078,570.057,0.0
55779.0,STARLINK-5817,PAYLOAD,2024-07-07 12:29:32,14.98328603,0.0003051,70.0005,302.7095,269.5356,90.5454,4.6472e-05,4.62e-06,0.0,0 STARLINK-5817,1 55779U 23028AQ  24189.52051755  .00000462  00000-0  46472-4 0  9991,2 55779  70.0005 302.7095 0003051 269.5356  90.5454 14.98328603 75630,6950.197,96.107,574.183,569.942,0.0
55779.0,STARLINK-5817,PAYLOAD,2024-07-07 14:05:40,14.98331098,0.0002978,70.0007,302.5417,264.5107,95.5712,2.2612e-05,1.77e-06,0.0,0 STARLINK-5817,1 55779U 23028AQ  24189.58727648  .00000177  00000-0  22612-4 0  9991,2 55779  70.0007 302.5417 0002978 264.5107  95.5712 14.98331098 75649,6950.189,96.107,574.124,569.985,0.0
55779.0,STARLINK-5817,PAYLOAD,2024-07-08 12:31:33,14.98329451,0.0003025,70.0007,300.186,265.5172,94.5641,0.00010216,1.126e-05,0.0,0 STARLINK-5817,1 55779U 23028AQ  24190.52191488  .00001126  00000-0  10216-3 0  9995,2 55779  70.0007 300.1860 0003025 265.5172  94.5641 14.98329451 75787,6950.195,96.107,574.162,569.957,0.0
55779.0,STARLINK-5817,PAYLOAD,2024-07-08 14:07:41,14.98333529,0.000305,70.0005,300.0177,265.6519,94.4291,0.0001055,1.166e-05,0.0,0 STARLINK-5817,1 55779U 23028AQ  24190.58867211  .00001166  00000-0  10550-3 0  9990,2 55779  70.0005 300.0177 0003050 265.6519  94.4291 14.98333529 75791,6950.182,96.107,574.167,569.927,0.0
55779.0,STARLINK-5817,PAYLOAD,2024-07-08 17:19:57,14.98335757,0.0003023,70.0005,299.6809,265.3695,94.7119,0.00012678,1.42e-05,0.0,0 STARLINK-5817,1 55779U 23028AQ  24190.72218979  .00001420  00000-0  12678-3 0  9993,2 55779  70.0005 299.6809 0003023 265.3695  94.7119 14.98335757 75818,6950.175,96.107,574.141,569.939,0.0
55779.0,STARLINK-5817,PAYLOAD,2024-07-09 10:57:26,14.98329149,0.0002986,70.0005,297.8282,268.5614,91.5203,-8.8459e-07,-1.04e-06,0.0,0 STARLINK-5817,1 55779U 23028AQ  24191.45655636 -.00000104  00000-0 -88459-6 0  9992,2 55779  70.0005 297.8282 0002986 268.5614  91.5203 14.98329149 75925,6950.196,96.107,574.136,569.985,0.0
55779.0,STARLINK-5817,PAYLOAD,2024-07-09 14:09:42,14.98330389,0.0002861,70.0009,297.494,262.1154,97.968,-3.8051e-06,-1.38e-06,0.0,0 STARLINK-5817,1 55779U 23028AQ  24191.59007544 -.00000138  00000-0 -38051-5 0  9995,2 55779  70.0009 297.4940 0002861 262.1154  97.9680 14.98330389 75946,6950.192,96.107,574.045,570.068,0.0
55779.0,STARLINK-5817,PAYLOAD,2024-07-09 17:21:58,14.9833032,0.0002867,70.0009,297.1574,262.2192,97.8641,-5.2887e-06,-1.56e-06,0.0,0 STARLINK-5817,1 55779U 23028AQ  24191.72359544 -.00000156  00000-0 -52887-5 0  9993,2 55779  70.0009 297.1574 0002867 262.2192  97.8641 14.98330320 75968,6950.192,96.107,574.05,570.064,0.0
55779.0,STARLINK-5817,PAYLOAD,2024-07-10 10:59:27,14.98328567,0.0002836,70.001,295.306,262.4367,97.647,-5.9783e-05,-8.06e-06,0.0,0 STARLINK-5817,1 55779U 23028AQ  24192.45795858 -.00000806  00000-0 -59783-4 0  9999,2 55779  70.0010 295.3060 0002836 262.4367  97.6470 14.98328567 76073,6950.197,96.107,574.033,570.091,0.0
55779.0,STARLINK-5817,PAYLOAD,2024-07-10 17:23:59,14.98329078,0.0002828,70.001,294.6327,262.6911,97.3926,-4.902e-05,-6.78e-06,0.0,0 STARLINK-5817,1 55779U 23028AQ  24192.72499816 -.00000678  00000-0 -49020-4 0  9994,2 55779  70.0010 294.6327 0002828 262.6911  97.3926 14.98329078 76115,6950.196,96.107,574.026,570.095,0.0
55779.0,STARLINK-5817,PAYLOAD,2024-07-11 14:13:44,14.98330656,0.0002884,70.0011,292.4439,267.5497,92.5332,6.7068e-05,7.07e-06,0.0,0 STARLINK-5817,1 55779U 23028AQ  24193.59287395  .00000707  00000-0  67068-4 0  9990,2 55779  70.0011 292.4439 0002884 267.5497  92.5332 14.98330656 76247,6950.191,96.107,574.06,570.051,0.0
55779.0,STARLINK-5817,PAYLOAD,2024-07-12 14:15:45,14.98329953,0.0002994,70.0009,289.9192,266.7944,93.2872,5.7547e-05,5.94e-06,0.0,0 STARLINK-5817,1 55779U 23028AQ  24194.59427438  .00000594  00000-0  57547-4 0  9990,2 55779  70.0009 289.9192 0002994 266.7944  93.2872 14.98329953 76392,6950.193,96.107,574.139,569.977,0.0
55779.0,STARLINK-5817,PAYLOAD,2024-07-12 15:51:53,14.98330597,0.0002989,70.0009,289.7509,266.8776,93.2041,6.3929e-05,6.7e-06,0.0,0 STARLINK-5817,1 55779U 23028AQ  24194.66103380  .00000670  00000-0  63929-4 0  9991,2 55779  70.0009 289.7509 0002989 266.8776  93.2041 14.98330597 76406,6950.191,96.107,574.133,569.979,0.0
55779.0,STARLINK-5817,PAYLOAD,2024-07-13 14:17:46,14.98333944,0.0003147,70.0005,287.3938,268.2178,91.862,-3.7644e-06,-1.38e-06,0.0,0 STARLINK-5817,1 55779U 23028AQ  24195.59567237 -.00000138  00000-0 -37644-5 0  9996,2 55779  70.0005 287.3938 0003147 268.2178  91.8620 14.98333944 76542,6950.181,96.107,574.233,569.858,0.0
55779.0,STARLINK-5817,PAYLOAD,2024-07-13 15:53:54,14.98334736,0.0003153,70.0005,287.2256,268.7433,91.3364,4.7417e-06,-3.6e-07,0.0,0 STARLINK-5817,1 55779U 23028AQ  24195.66243150 -.00000036  00000-0  47417-5 0  9994,2 55779  70.0005 287.2256 0003153 268.7433  91.3364 14.98334736 76551,6950.178,96.107,574.235,569.852,0.0
55779.0,STARLINK-5817,PAYLOAD,2024-07-14 14:19:46,14.98336191,0.0003119,70.0005,284.8689,267.1461,92.9341,8.9759e-05,9.78e-06,0.0,0 STARLINK-5817,1 55779U 23028AQ  24196.59706677  .00000978  00000-0  89759-4 0  9993,2 55779  70.0005 284.8689 0003119 267.1461  92.9341 14.98336191 76694,6950.174,96.107,574.207,569.871,0.0
55779.0,STARLINK-5817,PAYLOAD,2024-07-14 15:55:54,14.98338321,0.0003066,70.0006,284.701,267.7292,92.3516,7.5579e-05,8.09e-06,0.0,0 STARLINK-5817,1 55779U 23028AQ  24196.66382554  .00000809  00000-0  75579-4 0  9993,2 55779  70.0006 284.7010 0003066 267.7292  92.3516 14.98338321 76708,6950.167,96.106,574.163,569.901,0.0
55779.0,STARLINK-5817,PAYLOAD,2024-07-15 12:45:39,14.98329717,0.0002924,70.0009,282.5121,264.3682,95.7143,2.1451e-05,1.63e-06,0.0,0 STARLINK-5817,1 55779U 23028AQ  24197.53171146  .00000163  00000-0  21451-4 0  9996,2 55779  70.0009 282.5121 0002924 264.3682  95.7143 14.98329717 76834,6950.194,96.107,574.091,570.027,0.0
